ES'HAIL 2               
1 43700U 18090A   23338.55219582  .00000160  00000+0  00000+0 0  9993
2 43700   0.0003   4.1993 0001957 285.0062   8.4923  1.00272327 18391
FOX-1CLIFF (AO-95)      
1 43770U 18099N   23338.15941132  .00006524  00000+0  49707-3 0  9999
2 43770  97.5783  35.4209 0012457 313.1090  46.9092 15.02333148273104
ITASAT                  
1 43786U 18099AE  23338.15861682  .00005469  00000+0  42674-3 0  9990
2 43786  97.5463  36.0731 0016725 289.7073  70.2347 15.01443974273138
JY1SAT (JO-97)          
1 43803U 18099AX  23338.59428918  .00008407  00000+0  62062-3 0  9997
2 43803  97.5487  36.9178 0010045 249.1208 110.8942 15.03461922273279
UWE-4                   
1 43880U 18111E   23338.27235984  .00007882  00000+0  55619-3 0  9997
2 43880  97.6233 240.9728 0016762 321.8463  38.1575 15.05113635269923
JAISAT-1                
1 44419U 19038F   23338.50539435  .00052004  00000+0  11688-2 0  9992
2 44419  97.6846 327.4037 0014632  60.8603 299.4106 15.43064138244678
DUCHIFAT-3              
1 44854U 19089C   23338.57999224  .00011550  00000+0  69777-3 0  9998
2 44854  36.9585 150.2825 0008640 290.3703  69.6114 15.10114629218635
TIANYAN 01              
1 44881U 19093C   23338.55594740  .00001798  00000+0  22717-3 0  9991
2 44881  97.8487  54.0349 0013365 239.5462 120.4432 14.83050953214049
RS-44 & BREEZE-KM R/B   
1 44909U 19096E   23338.18972179  .00000025  00000+0  49521-4 0  9995
2 44909  82.5226 234.9725 0217908 149.2543 212.1538 12.79724216183904
BY70-2                  
1 45857U 20042B   23338.58977681  .00037372  00000+0  29349-2 0  9997
2 45857  97.9190  60.0613 0006795 156.7354 203.4178 15.00772040184992
SALSAT                  
1 46495U 20068K   23338.44145204  .00005183  00000+0  32312-3 0  9997
2 46495  97.7918 288.6671 0012789 261.0011  98.9770 15.09937515174745
RADFXSAT-2 (AO-109)     
1 47311U 21002C   23338.51154457  .00056674  00000+0  85030-3 0  9998
2 47311  60.6747 117.7265 0023975  38.7399 321.5416 15.54197221160604
UVSQ-SAT                
1 47438U 21006AB  23338.60637786  .00024754  00000+0  80330-3 0  9995
2 47438  97.3607  33.8227 0007981 189.0560 171.0539 15.31918764158666
LEDSAT                  
1 49069U 21073D   23338.15927434  .00012319  00000+0  60192-3 0  9991
2 49069  97.4638  46.4052 0020817 249.4623 110.4377 15.18197153126650
XW-3 (CAS-9)            
1 50466U 21131B   23338.58786852  .00001025  00000+0  34478-3 0  9993
2 50466  98.5428  59.5458 0004057   6.4770 353.6470 14.39227439101863
TEVEL-3                 
1 50988U 22002E   23338.29366960  .00032475  00000+0  94211-3 0  9996
2 50988  97.4118  44.9636 0005965   1.3157 358.8101 15.35442208104764
TEVEL-8                 
1 50989U 22002F   23338.58138924  .00036405  00000+0  10573-2 0  9991
2 50989  97.4137  45.3298 0005841 358.7648   1.3580 15.35382638104808
TEVEL-5                 
1 50998U 22002Q   23338.57959291  .00039109  00000+0  10827-2 0  9994
2 50998  97.4113  45.8908 0006632 351.1395   8.9731 15.36861657104850
TEVEL-6                 
1 50999U 22002R   23338.57875202  .00038975  00000+0  10796-2 0  9999
2 50999  97.4112  45.8794 0006628 350.8030   9.3092 15.36845302104854
TEVEL-1                 
1 51013U 22002AF  23338.57052545  .00036591  00000+0  10623-2 0  9995
2 51013  97.4110  45.1517 0005717   0.1730 359.9514 15.35394529104803
TEVEL-7                 
1 51062U 22002CG  23338.57916992  .00036752  00000+0  10658-2 0  9991
2 51062  97.4131  45.2978 0005847 358.7746   1.3482 15.35427124104805
TEVEL-4                 
1 51063U 22002CH  23338.39815991  .00032844  00000+0  95722-3 0  9993
2 51063  97.4130  45.0750 0005793 359.7903   0.3337 15.35295253104777
TEVEL-2                 
1 51069U 22002CP  23338.62035655  .00037312  00000+0  10799-2 0  9991
2 51069  97.4115  45.2595 0005894 359.8125   0.3115 15.35486240104811
GREENCUBE               
1 53106U 22080B   23332.09968023 -.00000003  00000+0  00000+0 0  9999
2 53106  70.1436 262.7414 0008227 151.4978 208.6132  6.42557248 32288
CYCLOPS (RS29S)         
1 53373U 22096D   23338.59591424  .00100336  00000+0  12360-2 0  9994
2 53373  97.3979 248.6962 0004404  81.9019 278.2737 15.59871005 74035
MONITOR-1 (RS32S)       
1 53374U 22096E   23338.61012151  .00092624  00000+0  12724-2 0  9997
2 53374  97.3926 248.0945 0003355  85.5011 274.6628 15.56992620 74009
KUZBASS-300 (RS34S)     
1 53375U 22096F   23338.58791028  .00053321  00000+0  96715-3 0  9995
2 53375  97.4001 246.8898 0002432  77.3218 282.8305 15.49431485 73912
UTMN (RS23S)            
1 53376U 22096G   23338.57528154  .00060458  00000+0  10295-2 0  9990
2 53376  97.3980 247.1903 0002930  75.6772 284.4805 15.51191765 73930
MIET-AIS (RS28S)        
1 53377U 22096H   23338.57186294  .00047322  00000+0  91000-3 0  9995
2 53377  97.4010 246.6383 0002600  79.5066 280.6477 15.47778806 73895
KAI-1 (RS26S)           
1 53378U 22096J   23338.59023766  .00037370  00000+0  80870-3 0  9997
2 53378  97.4037 245.9069 0002194  78.0981 282.0514 15.44374622 73844
ISOI (RS19S)            
1 53381U 22096M   23338.60588203  .00048652  00000+0  89525-3 0  9996
2 53381  97.4005 247.1677 0004275 110.8853 249.2856 15.49035292 73933
CUBESX-HSE-2 (RS21S)    
1 53383U 22096P   23338.59756369  .00059481  00000+0  10177-2 0  9994
2 53383  97.3986 247.4843 0004788 112.5789 247.5970 15.51053922 73959
SIREN (RS30S)           
1 53384U 22096Q   23338.57472347  .00039027  00000+0  77776-3 0  9997
2 53384  97.4014 246.6503 0004081 112.7275 247.4406 15.46780453 73891
GEOSCAN-EDELVEIS (RS20S)
1 53385U 22096R   23338.59166331  .00128351  00000+0  13672-2 0  9996
2 53385  97.3959 249.7202 0006656  99.4485 260.7526 15.63542733 74138
VIZARD (RS33S)          
1 53386U 22096S   23338.37146280  .00710275  21937-3  17413-2 0  9999
2 53386  97.3853 252.6212 0008872 109.5865 250.6370 15.96067255 74292
CAS-5A (FO-118)         
1 54684U 22167C   23338.58193734  .00018892  00000+0  88281-3 0  9991
2 54684  97.5826 115.8564 0012760 105.8697 254.3944 15.19770447 54508
STRATOSAT-TK 1 (RS52S)  
1 57167U 23091B   23338.62153123  .00011782  00000+0  79712-3 0  9990
2 57167  97.6431  27.8556 0018302  69.2470 291.0716 15.06542068 24068
UMKA 1 (RS40S)          
1 57172U 23091G   23338.61325316  .00005459  00000+0  38749-3 0  9999
2 57172  97.6435  27.7126 0019115  69.3211 291.0063 15.04998943 24056
CUBESX-HSE 3 (RS42S)    
1 57178U 23091N   23338.60839123  .00008061  00000+0  56390-3 0  9994
2 57178  97.6472  27.7973 0020024  64.5432 295.7863 15.05380440 24053
MONITOR-4 (RS57S)       
1 57182U 23091S   23338.62017432  .00007144  00000+0  50316-3 0  9995
2 57182  97.6456  27.7580 0019978  64.8374 295.4921 15.05171357 24055
MONITOR-2 (RS39S)       
1 57184U 23091U   23338.61689036  .00004995  00000+0  35101-3 0  9997
2 57184  97.6465  27.9238 0016096  59.7464 300.5354 15.05463097 24064
SVYATOBOR 1 (RS60S)     
1 57187U 23091X   23338.57659911  .00006098  00000+0  42005-3 0  9991
2 57187  97.6452  27.9793 0015624  57.8949 302.3792 15.06126614 24060
VIZARD-METEO (RS38S)    
1 57189U 23091Z   23338.59429680  .00007008  00000+0  47324-3 0  9994
2 57189  97.6457  28.0940 0014880  57.2990 302.9670 15.06817877 24076
NANOZOND 1 (RS49S)      
1 57190U 23091AA  23338.60899750  .00010345  00000+0  67878-3 0  9991
2 57190  97.6434  28.1711 0013435  62.5413 297.7179 15.07778267 24080
POLYTECH-UNIVERSE 3 (R*)
1 57191U 23091AB  23338.60552158  .00004902  00000+0  34521-3 0  9991
2 57191  97.6432  27.7198 0022224  75.2270 285.1417 15.05298615 24056
UTMN 2 (RS27S)          
1 57203U 23091AP  23338.60807426  .00007090  00000+0  48150-3 0  9990
2 57203  97.6458  28.0749 0015182  57.2538 303.0150 15.06600591 24073
ARCCUBE 1 (RS25S)       
1 57205U 23091AR  23338.60144468  .00011369  00000+0  73981-3 0  9996
2 57205  97.6413  28.1459 0013844  64.1523 296.1131 15.08052087 24084
KUZGTU 1 (RS47S)        
1 57217U 23091AV  23338.60647990  .00007020  00000+0  49215-3 0  9999
2 57217  97.6446  27.7490 0019977  65.7923 294.5388 15.05346349 24054
